LUCKY-7                 
1 44406U 19038W   24107.70253047  .00060491  00000+0  15713-2 0  9999
2 44406  97.7049 102.5058 0011659 317.4444  42.5896 15.38678958264899
BEESAT 9                
1 44412U 19038AC  24108.47777680  .00228023  00000+0  20656-2 0  9994
2 44412  97.6826 110.7029 0002926 239.8597 120.2373 15.67333625265234
JAISAT-1                
1 44419U 19038F   24107.92641233  .00252329  00000+0  24198-2 0  9995
2 44419  97.6824 111.1162 0002407 245.9177 114.1830 15.65834487265520
DUCHIFAT-3              
1 44854U 19089C   24108.24055660  .00032726  00000+0  17629-2 0  9991
2 44854  36.9589  58.4213 0009819 297.2861  62.6885 15.13936169238958
M2 PATHFINDER           
1 45727U 20037E   24108.02071203  .00007270  00000+0  64369-3 0  9993
2 45727  97.7742 284.8122 0010574 332.2886  27.7770 14.96524081206793
NETSAT-4                
1 46504U 20068U   24107.82226810  .00021430  00000+0  11976-2 0  9993
2 46504  97.8010  63.3968 0009086 200.9243 159.1616 15.13487347194886
NETSAT-3                
1 46505U 20068V   24108.44684917  .00019511  00000+0  11050-2 0  9999
2 46505  97.7978  63.6154 0008201 206.1960 153.8857 15.13036798194979
NETSAT-1                
1 46506U 20068W   24108.10533295  .00015895  00000+0  93541-3 0  9992
2 46506  97.7998  62.8676 0006711 219.8794 140.1943 15.11709164194890
NETSAT-2                
1 46507U 20068X   24108.43091399  .00022985  00000+0  12868-2 0  9993
2 46507  97.7990  63.6724 0005816 223.0701 137.0075 15.13428326194921
WILDTRACKCUBE-SIMBA     
1 47941U 21022K   24108.49539467  .00021441  00000+0  10143-2 0  9996
2 47941  97.4672   5.8725 0016134   5.2086 354.9314 15.19274390169247
BEESAT-6                
1 47957U 21022AB  24107.69546960  .00179512  00000+0  33717-2 0  9995
2 47957  97.4530  13.2532 0006217  13.0151 347.1258 15.47916965169486
SMOG-1                  
1 47964U 21022AJ  24108.18126201  .00168587  00000+0  31686-2 0  9993
2 47964  97.4690  16.8036 0004820 332.0924  28.0067 15.47945735168747
BCCSAT-1                
1 48041U 21022AK  24108.20964580  .00110767  00000+0  28305-2 0  9994
2 48041  97.4688  13.7396 0005790 335.9669  24.1305 15.39014534168524
BEESAT-5                
1 48083U 21022AM  24107.70951681  .00236244  00000+0  35582-2 0  9996
2 48083  97.4286  14.2042 0004338   2.5547 357.5728 15.53964729168727
BEESAT-7                
1 48084U 21022AN  24107.47136786  .00159469  00000+0  33084-2 0  9990
2 48084  97.4641  13.2953 0007009 344.2548  15.8482 15.45084952168181
BEESAT-8                
1 48085U 21022AP  24107.70318038  .00054677  00000+0  19786-2 0  9997
2 48085  97.4784   9.3288 0012612 358.0001   2.1186 15.28148981168476
LEDSAT                  
1 49069U 21073D   24108.17485502  .00034482  00000+0  14902-2 0  9996
2 49069  97.4414 179.8126 0021615 137.3538 222.9381 15.22180550147163
SITRO-AIS 5 (KATYS)     
1 57176U 23091L   24108.50520725  .00014238  00000+0  94675-3 0  9993
2 57176  97.6188 161.2441 0017052 332.2365  27.7951 15.07156996 44351
SITRO-AIS 6 (CHIRKIN)   
1 57192U 23091AC  24108.49282544  .00014331  00000+0  95125-3 0  9998
2 57192  97.6194 161.2522 0016850 332.2692  27.7636 15.07223353 44356
SITRO-AIS 8 (ANOKHIN)   
1 57193U 23091AD  24108.47187550  .00014784  00000+0  97527-3 0  9998
2 57193  97.6196 161.2738 0016403 334.6205  25.4215 15.07452505 44359
SITRO-AIS 7 (FARTUSHNIY)
1 57194U 23091AE  24108.49616259  .00014272  00000+0  94844-3 0  9995
2 57194  97.6190 161.2425 0016769 332.7744  27.2602 15.07183243 44359
SITRO-AIS 10 (BURDAEV)  
1 57199U 23091AK  24108.51263974  .00015597  00000+0  98423-3 0  9993
2 57199  97.6202 162.0401 0011347 322.3740  37.6694 15.09131413 44405
SITRO-AIS 9 (SHCHUKIN)  
1 57201U 23091AM  24108.51050842  .00015841  00000+0  99945-3 0  9997
2 57201  97.6196 162.0237 0011330 322.2086  37.8346 15.09135055 44404
SITRO-AIS 12 (SMIRENNIY)
1 57204U 23091AQ  24108.48036268  .00015922  00000+0  99984-3 0  9995
2 57204  97.6214 162.1009 0011055 316.6593  43.3766 15.09309153 44400
SITRO-AIS 11 (SHEFFER)  
1 57208U 23091AU  24108.46924652  .00016651  00000+0  10434-2 0  9992
2 57208  97.6212 162.1064 0010800 317.4536  42.5855 15.09378764 44400
SITRO-AIS B             
1 59052U 24039B   24108.51619078  .00032093  00000+0  13001-2 0  9994
2 59052  97.3877  71.1733 0022036  73.7777 286.5883 15.24372746  7342
SITRO-AIS C             
1 59053U 24039C   24108.51578704  .00032947  00000+0  13331-2 0  9999
2 59053  97.3875  71.1722 0022116  74.5036 285.8642 15.24406098  7337
SITRO-AIS 31            
1 59054U 24039D   24108.51319478  .00032441  00000+0  13094-2 0  9996
2 59054  97.3876  71.1753 0021951  74.4964 285.8695 15.24494832  7351
SITRO-AIS 33            
1 59055U 24039E   24108.51008586  .00034941  00000+0  14052-2 0  9994
2 59055  97.3878  71.1811 0021729  75.0410 285.3232 15.24604857  7346
SITRO-AIS F             
1 59056U 24039F   24108.50827564  .00033916  00000+0  13629-2 0  9999
2 59056  97.3878  71.1830 0021551  75.1596 285.2027 15.24641488  7349
SITRO-AIS G             
1 59057U 24039G   24108.51008990  .00033961  00000+0  13673-2 0  9994
2 59057  97.3877  71.1806 0021482  75.3125 285.0492 15.24579446  7343
SITRO-AIS 35            
1 59058U 24039H   24108.50901010  .00035060  00000+0  14088-2 0  9992
2 59058  97.3879  71.1832 0021655  75.2141 285.1494 15.24634260  7343
SITRO-AIS 36            
1 59059U 24039J   24108.50622257  .00034331  00000+0  13768-2 0  9990
2 59059  97.3879  71.1862 0021251  75.3714 284.9878 15.24712792  7346
SITRO-AIS 49            
1 59060U 24039K   24108.50549796  .00031016  00000+0  12446-2 0  9997
2 59060  97.3879  71.1867 0021229  75.1930 285.1658 15.24714602  7347
SITRO-AIS 50            
1 59061U 24039L   24108.50336237  .00033868  00000+0  13534-2 0  9998
2 59061  97.3878  71.1897 0021260  75.4101 284.9492 15.24834881  7343
SITRO-AIS 51            
1 59062U 24039M   24108.50249929  .00035520  00000+0  14185-2 0  9990
2 59062  97.3879  71.1910 0021182  75.2166 285.1417 15.24847160  7347
SITRO-AIS 52            
1 59063U 24039N   24108.50013009  .00035272  00000+0  14055-2 0  9999
2 59063  97.3879  71.1941 0021011  75.1421 285.2142 15.24926431  7341
SITRO-AIS 25            
1 59066U 24039R   24108.52315728  .00008091  00000+0  78977-3 0  9990
2 59066  95.3988  56.3160 0173830 190.7490 168.9997 14.81818490  7126
SITRO-AIS 26            
1 59067U 24039S   24108.52255346  .00008079  00000+0  78879-3 0  9997
2 59067  95.3987  56.3162 0173619 190.7760 168.9722 14.81831445  7124
SITRO-AIS 27            
1 59068U 24039T   24108.51899326  .00008043  00000+0  78341-3 0  9994
2 59068  95.3989  56.3211 0173389 190.6594 169.0933 14.81951161  7124
SITRO-AIS 28            
1 59071U 24039U   24108.60572905  .00007553  00000+0  73619-3 0  9997
2 59071  95.3967  56.3837 0172979 190.3995 277.9739 14.81984024  7132
BEIJING 1               
1 28890U 05043A   24108.53359636  .00001150  00000+0  23738-3 0  9996
2 28890  98.1904 231.8669 0013960 233.1676 126.8245 14.62233637985032
HJ-1A                   
1 33320U 08041A   24108.50971564  .00005021  00000+0  67481-3 0  9992
2 33320  97.6341 118.5295 0019702 204.9704 155.0557 14.79569097841388
HJ-1B                   
1 33321U 08041B   24108.52773478  .00002768  00000+0  36858-3 0  9998
2 33321  97.6300 123.0863 0036966 253.5557 106.1592 14.79979629841408
YAOGAN 4                
1 33446U 08061A   24108.43273715  .00004922  00000+0  66423-3 0  9992
2 33446  97.8760  41.4904 0016494 120.5447 239.7395 14.79456721828572
DEIMOS-1                
1 35681U 09041A   24108.47677597  .00002035  00000+0  32285-3 0  9996
2 35681  97.6804 293.6610 0001166 157.8899 202.2360 14.73162553790375
UK-DMC 2                
1 35683U 09041C   24108.48299070  .00002813  00000+0  44459-3 0  9995
2 35683  97.7720 258.6666 0001130  95.0505 265.0832 14.73072448790076
RISAT 1                 
1 38248U 12017A   24108.51559148  .00018985  00000+0  82601-3 0  9999
2 38248  97.5287 125.7628 0005072  98.9599 261.2211 15.22283250660365
DMC3-FM1                
1 40715U 15032A   24108.53159933  .00002126  00000+0  26470-3 0  9993
2 40715  97.7590 349.2025 0007006 123.2568 236.9318 14.83488991472584
DMC3-FM2                
1 40716U 15032B   24108.55468006  .00002167  00000+0  26970-3 0  9990
2 40716  97.7641 350.2541 0008814 129.0550 231.1450 14.83492632472581
DMC3-FM3                
1 40717U 15032C   24108.50982821  .00001518  00000+0  19096-3 0  9992
2 40717  97.7687 351.4542 0010306 127.3977 232.8177 14.83460680472581
NOAA 15                 
1 25338U 98030A   24108.49722547  .00000513  00000+0  23061-3 0  9999
2 25338  98.5747 136.8772 0011246 137.8901 222.3145 14.26536769348788
DMSP 5D-3 F16 (USA 172) 
1 28054U 03048A   24108.51890056  .00000471  00000+0  27194-3 0  9990
2 28054  99.0227 114.4164 0006542 217.8409 256.1215 14.13992599 57702
NOAA 18                 
1 28654U 05018A   24108.46110311  .00000507  00000+0  29426-3 0  9998
2 28654  98.8754 185.9286 0013494 232.1406 127.8546 14.13169913974681
METEOSAT-9 (MSG-2)      
1 28912U 05049B   24108.03994035  .00000122  00000+0  00000+0 0  9991
2 28912   7.5487  61.3643 0001641 317.3138 247.0737  1.00275208 67149
EWS-G1 (GOES 13)        
1 29155U 06018A   24107.91309681 -.00000275  00000+0  00000+0 0  9991
2 29155   2.4668  85.9546 0087389 253.1681 323.6023  0.99155978 35424
DMSP 5D-3 F17 (USA 191) 
1 29522U 06050A   24108.49365942  .00000511  00000+0  28902-3 0  9998
2 29522  98.7470 120.3178 0010709 147.1750 213.0090 14.14439792900616
FENGYUN 3A              
1 32958U 08026A   24108.46658082  .00000451  00000+0  23620-3 0  9992
2 32958  98.5990  57.3593 0007602 245.5628 114.4756 14.19055388823340
